[{"OBJECT_NAME":"INMARSAT 4-F2 (SOUTHPAN/PRN 122)","OBJECT_ID":"2005-044A","EPOCH":"2026-03-05T18:54:38.721024","MEAN_MOTION":1.00271238,"ECCENTRICITY":0.0002714,"INCLINATION":4.96,"RA_OF_ASC_NODE":43.8087,"ARG_OF_PERICENTER":323.6628,"MEAN_ANOMALY":223.1994,"EPHEMERIS_TYPE":0,"CLASSIFICATION_TYPE":"U","NORAD_CAT_ID":28899,"ELEMENT_SET_NO":999,"REV_AT_EPOCH":7448,"BSTAR":0,"MEAN_MOTION_DOT":-2.65e-6,"MEAN_MOTION_DDOT":0},{"OBJECT_NAME":"GSAT-8 (GAGAN/PRN 127)","OBJECT_ID":"2011-022A","EPOCH":"2026-03-05T15:58:15.317184","MEAN_MOTION":1.00272891,"ECCENTRICITY":0.0007236,"INCLINATION":1.8635,"RA_OF_ASC_NODE":83.1416,"ARG_OF_PERICENTER":215.9334,"MEAN_ANOMALY":158.9326,"EPHEMERIS_TYPE":0,"CLASSIFICATION_TYPE":"U","NORAD_CAT_ID":37605,"ELEMENT_SET_NO":999,"REV_AT_EPOCH":5218,"BSTAR":0,"MEAN_MOTION_DOT":7.8e-7,"MEAN_MOTION_DDOT":0},{"OBJECT_NAME":"LUCH 5A (SDCM/PRN 140)","OBJECT_ID":"2011-074B","EPOCH":"2026-03-05T07:56:45.103776","MEAN_MOTION":1.00275722,"ECCENTRICITY":0.0003934,"INCLINATION":8.4896,"RA_OF_ASC_NODE":75.3325,"ARG_OF_PERICENTER":246.3674,"MEAN_ANOMALY":127.6589,"EPHEMERIS_TYPE":0,"CLASSIFICATION_TYPE":"U","NORAD_CAT_ID":37951,"ELEMENT_SET_NO":999,"REV_AT_EPOCH":5201,"BSTAR":0,"MEAN_MOTION_DOT":-5.2e-7,"MEAN_MOTION_DDOT":0},{"OBJECT_NAME":"SES-5 (EGNOS/PRN 136)","OBJECT_ID":"2012-036A","EPOCH":"2026-03-05T15:43:54.194304","MEAN_MOTION":1.00270058,"ECCENTRICITY":0.0002126,"INCLINATION":0.0592,"RA_OF_ASC_NODE":310.902,"ARG_OF_PERICENTER":30.0969,"MEAN_ANOMALY":63.3269,"EPHEMERIS_TYPE":0,"CLASSIFICATION_TYPE":"U","NORAD_CAT_ID":38652,"ELEMENT_SET_NO":999,"REV_AT_EPOCH":4341,"BSTAR":0,"MEAN_MOTION_DOT":2.6e-7,"MEAN_MOTION_DDOT":0},{"OBJECT_NAME":"GSAT-10 (GAGAN/PRN 128)","OBJECT_ID":"2012-051B","EPOCH":"2026-03-05T17:19:38.654688","MEAN_MOTION":1.00273422,"ECCENTRICITY":0.0004412,"INCLINATION":0.0703,"RA_OF_ASC_NODE":262.6631,"ARG_OF_PERICENTER":176.7594,"MEAN_ANOMALY":66.9102,"EPHEMERIS_TYPE":0,"CLASSIFICATION_TYPE":"U","NORAD_CAT_ID":38779,"ELEMENT_SET_NO":999,"REV_AT_EPOCH":4906,"BSTAR":0,"MEAN_MOTION_DOT":-1.72e-6,"MEAN_MOTION_DDOT":0},{"OBJECT_NAME":"LUCH 5B (SDCM/PRN 125)","OBJECT_ID":"2012-061A","EPOCH":"2026-03-05T13:34:34.643136","MEAN_MOTION":1.00271642,"ECCENTRICITY":0.0004162,"INCLINATION":10.2612,"RA_OF_ASC_NODE":50.8943,"ARG_OF_PERICENTER":224.5827,"MEAN_ANOMALY":75.1508,"EPHEMERIS_TYPE":0,"CLASSIFICATION_TYPE":"U","NORAD_CAT_ID":38977,"ELEMENT_SET_NO":999,"REV_AT_EPOCH":4856,"BSTAR":0,"MEAN_MOTION_DOT":-1.41e-6,"MEAN_MOTION_DDOT":0},{"OBJECT_NAME":"ASTRA 5B (EGNOS/PRN 123)","OBJECT_ID":"2014-011B","EPOCH":"2026-03-05T17:11:19.966848","MEAN_MOTION":1.00271717,"ECCENTRICITY":0.0004072,"INCLINATION":0.0882,"RA_OF_ASC_NODE":299.9851,"ARG_OF_PERICENTER":27.9454,"MEAN_ANOMALY":116.8177,"EPHEMERIS_TYPE":0,"CLASSIFICATION_TYPE":"U","NORAD_CAT_ID":39617,"ELEMENT_SET_NO":999,"REV_AT_EPOCH":4363,"BSTAR":0,"MEAN_MOTION_DOT":1.3e-6,"MEAN_MOTION_DDOT":0},{"OBJECT_NAME":"LUCH 5V (SDCM/PRN 141)","OBJECT_ID":"2014-023A","EPOCH":"2026-03-05T14:26:54.077856","MEAN_MOTION":1.0027153,"ECCENTRICITY":0.000306,"INCLINATION":4.878,"RA_OF_ASC_NODE":70.7644,"ARG_OF_PERICENTER":282.1419,"MEAN_ANOMALY":121.8839,"EPHEMERIS_TYPE":0,"CLASSIFICATION_TYPE":"U","NORAD_CAT_ID":39727,"ELEMENT_SET_NO":999,"REV_AT_EPOCH":4332,"BSTAR":0,"MEAN_MOTION_DOT":-2.74e-6,"MEAN_MOTION_DDOT":0},{"OBJECT_NAME":"GSAT-15 (GAGAN/PRN 139)","OBJECT_ID":"2015-065A","EPOCH":"2026-03-05T16:09:14.264928","MEAN_MOTION":1.00270716,"ECCENTRICITY":0.0001175,"INCLINATION":0.0865,"RA_OF_ASC_NODE":269.7496,"ARG_OF_PERICENTER":105.4832,"MEAN_ANOMALY":123.9496,"EPHEMERIS_TYPE":0,"CLASSIFICATION_TYPE":"U","NORAD_CAT_ID":41028,"ELEMENT_SET_NO":999,"REV_AT_EPOCH":3776,"BSTAR":0,"MEAN_MOTION_DOT":-2.64e-6,"MEAN_MOTION_DDOT":0},{"OBJECT_NAME":"EUTELSAT 117 WEST B (WAAS/PRN 131)","OBJECT_ID":"2016-038B","EPOCH":"2026-03-05T15:09:12.521952","MEAN_MOTION":1.00274096,"ECCENTRICITY":3.26e-5,"INCLINATION":0.0191,"RA_OF_ASC_NODE":305.945,"ARG_OF_PERICENTER":291.7627,"MEAN_ANOMALY":35.9665,"EPHEMERIS_TYPE":0,"CLASSIFICATION_TYPE":"U","NORAD_CAT_ID":41589,"ELEMENT_SET_NO":999,"REV_AT_EPOCH":3562,"BSTAR":0,"MEAN_MOTION_DOT":-1.9e-7,"MEAN_MOTION_DDOT":0},{"OBJECT_NAME":"SES-15 (WAAS/PRN 133)","OBJECT_ID":"2017-026A","EPOCH":"2026-03-05T00:25:38.690688","MEAN_MOTION":1.0027106,"ECCENTRICITY":7.138e-5,"INCLINATION":0.0426,"RA_OF_ASC_NODE":307.9199,"ARG_OF_PERICENTER":39.5952,"MEAN_ANOMALY":52.4724,"EPHEMERIS_TYPE":0,"CLASSIFICATION_TYPE":"U","NORAD_CAT_ID":42709,"ELEMENT_SET_NO":999,"REV_AT_EPOCH":638,"BSTAR":0,"MEAN_MOTION_DOT":5.0e-7,"MEAN_MOTION_DDOT":0},{"OBJECT_NAME":"QZS-2 (QZSS/PRN 194)","OBJECT_ID":"2017-028A","EPOCH":"2026-03-05T17:39:05.611104","MEAN_MOTION":1.00261653,"ECCENTRICITY":0.0745487,"INCLINATION":39.5883,"RA_OF_ASC_NODE":244.6601,"ARG_OF_PERICENTER":270.3415,"MEAN_ANOMALY":54.7958,"EPHEMERIS_TYPE":0,"CLASSIFICATION_TYPE":"U","NORAD_CAT_ID":42738,"ELEMENT_SET_NO":999,"REV_AT_EPOCH":658,"BSTAR":0,"MEAN_MOTION_DOT":-1.7e-6,"MEAN_MOTION_DDOT":0},{"OBJECT_NAME":"QZS-3 (QZSS/PRN 199)","OBJECT_ID":"2017-048A","EPOCH":"2026-03-05T17:43:08.611104","MEAN_MOTION":1.00275676,"ECCENTRICITY":0.0002288,"INCLINATION":0.0697,"RA_OF_ASC_NODE":214.4992,"ARG_OF_PERICENTER":143.6382,"MEAN_ANOMALY":198.1087,"EPHEMERIS_TYPE":0,"CLASSIFICATION_TYPE":"U","NORAD_CAT_ID":42917,"ELEMENT_SET_NO":999,"REV_AT_EPOCH":3122,"BSTAR":0,"MEAN_MOTION_DOT":-3.55e-6,"MEAN_MOTION_DDOT":0},{"OBJECT_NAME":"QZS-4 (QZSS/PRN 195)","OBJECT_ID":"2017-062A","EPOCH":"2026-03-05T17:47:25.010016","MEAN_MOTION":1.00280691,"ECCENTRICITY":0.0748495,"INCLINATION":40.1722,"RA_OF_ASC_NODE":344.8064,"ARG_OF_PERICENTER":269.915,"MEAN_ANOMALY":316.0784,"EPHEMERIS_TYPE":0,"CLASSIFICATION_TYPE":"U","NORAD_CAT_ID":42965,"ELEMENT_SET_NO":999,"REV_AT_EPOCH":3076,"BSTAR":0,"MEAN_MOTION_DOT":-3.41e-6,"MEAN_MOTION_DDOT":0},{"OBJECT_NAME":"BEIDOU-3 G1 (PRN 130)","OBJECT_ID":"2018-085A","EPOCH":"2026-03-05T18:38:43.961280","MEAN_MOTION":1.00268249,"ECCENTRICITY":0.0001427,"INCLINATION":2.8141,"RA_OF_ASC_NODE":100.349,"ARG_OF_PERICENTER":19.86,"MEAN_ANOMALY":103,"EPHEMERIS_TYPE":0,"CLASSIFICATION_TYPE":"U","NORAD_CAT_ID":43683,"ELEMENT_SET_NO":999,"REV_AT_EPOCH":2702,"BSTAR":0,"MEAN_MOTION_DOT":-2.84e-6,"MEAN_MOTION_DDOT":0},{"OBJECT_NAME":"EUTELSAT 5 WEST B (EGNOS/PRN 121)","OBJECT_ID":"2019-067A","EPOCH":"2026-03-05T15:41:09.458016","MEAN_MOTION":1.00272905,"ECCENTRICITY":0.0003208,"INCLINATION":0.0925,"RA_OF_ASC_NODE":311.8541,"ARG_OF_PERICENTER":43.0402,"MEAN_ANOMALY":38.7482,"EPHEMERIS_TYPE":0,"CLASSIFICATION_TYPE":"U","NORAD_CAT_ID":44624,"ELEMENT_SET_NO":999,"REV_AT_EPOCH":2339,"BSTAR":0,"MEAN_MOTION_DOT":-4.9e-7,"MEAN_MOTION_DDOT":0},{"OBJECT_NAME":"BEIDOU-3 G2 (PRN 144)","OBJECT_ID":"2020-017A","EPOCH":"2026-03-05T19:30:47.438784","MEAN_MOTION":1.00271514,"ECCENTRICITY":0.0002799,"INCLINATION":2.6571,"RA_OF_ASC_NODE":45.6818,"ARG_OF_PERICENTER":312.9867,"MEAN_ANOMALY":177.5975,"EPHEMERIS_TYPE":0,"CLASSIFICATION_TYPE":"U","NORAD_CAT_ID":45344,"ELEMENT_SET_NO":999,"REV_AT_EPOCH":2222,"BSTAR":0,"MEAN_MOTION_DOT":-1.45e-6,"MEAN_MOTION_DDOT":0}]
